0 COSMOS 1519 (GLONASS)
1 14590U 83127A   13287.60874323  .00000092  00000-0  00000+0 0  7284
2 14590 065.4520 120.8482 0013225 186.4137 176.9922 02.13101751172570
0 COSMOS 1519 (GLONASS)
1 14590U 83127A   13290.41993528  .00000079  00000-0  00000+0 0  7292
2 14590 065.4514 120.7552 0013124 187.3280 172.7233 02.13101661172633
0 COSMOS 1519 (GLONASS)
1 14590U 83127A   13290.41994728  .00000020  00000-0  10000-3 0  7308
2 14590 065.4531 120.7555 0013131 185.7328 174.3237 02.13100631172636
0 COSMOS 1519 (GLONASS)
1 14590U 83127A   13294.64326175  .00000041  00000-0  00000+0 0  7300
2 14590 065.4522 120.6160 0013150 187.2302 172.7981 02.13101651172728
